[{"OBJECT_NAME":"STARLINK-4183","OBJECT_ID":"2022-076AE","EPOCH":"2026-03-09T10:38:59.720064","MEAN_MOTION":15.0884146,"ECCENTRICITY":0.00013138,"INCLINATION":53.2165,"RA_OF_ASC_NODE":85.2243,"ARG_OF_PERICENTER":83.7669,"MEAN_ANOMALY":276.3472,"EPHEMERIS_TYPE":0,"CLASSIFICATION_TYPE":"U","NORAD_CAT_ID":53014,"ELEMENT_SET_NO":999,"REV_AT_EPOCH":20294,"BSTAR":-3.888561e-6,"MEAN_MOTION_DOT":-3.5e-6,"MEAN_MOTION_DDOT":0},{"OBJECT_NAME":"COSMOS 1275 DEB","OBJECT_ID":"1981-053RH","EPOCH":"2026-03-08T19:02:02.535360","MEAN_MOTION":15.08606043,"ECCENTRICITY":0.00097404,"INCLINATION":83.3308,"RA_OF_ASC_NODE":196.5935,"ARG_OF_PERICENTER":282.896,"MEAN_ANOMALY":77.1182,"EPHEMERIS_TYPE":0,"CLASSIFICATION_TYPE":"U","NORAD_CAT_ID":42145,"ELEMENT_SET_NO":999,"REV_AT_EPOCH":64889,"BSTAR":0.0090120528,"MEAN_MOTION_DOT":0.00143721,"MEAN_MOTION_DDOT":0}]
